NORAD_CAT_ID,OBJECT_NAME,OBJECT_TYPE,EPOCH,MEAN_MOTION,ECCENTRICITY,INCLINATION,RA_OF_ASC_NODE,ARG_OF_PERICENTER,MEAN_ANOMALY,BSTAR,MEAN_MOTION_DOT,MEAN_MOTION_DDOT,TLE_LINE0,TLE_LINE1,TLE_LINE2,SEMIMAJOR_AXIS,PERIOD,APOGEE,PERIGEE,DECAYED
49763.0,STARLINK-3198,PAYLOAD,2024-01-06 11:21:30,15.08839121,0.000133,53.217,100.0075,84.7085,275.4059,-1.4084e-05,-5.12e-06,0.0,0 STARLINK-3198,1 49763U 21115AR  24006.47327227 -.00000512  00000-0 -14084-4 0  9996,2 49763  53.2170 100.0075 0001330  84.7085 275.4059 15.08839121115930,6917.883,95.438,540.668,538.828,0.0
49763.0,STARLINK-3198,PAYLOAD,2024-01-07 11:12:17,15.08837791,0.0001427,53.2184,95.5483,99.4804,260.635,1.6204e-05,-3e-07,0.0,0 STARLINK-3198,1 49763U 21115AR  24007.46687256 -.00000030  00000-0  16204-4 0  9997,2 49763  53.2184  95.5483 0001427  99.4804 260.6350 15.08837791117196,6917.887,95.438,540.739,538.765,0.0
49763.0,STARLINK-3198,PAYLOAD,2024-01-08 11:03:04,15.08838907,0.0001423,53.2179,91.0873,100.2662,259.8491,6.299e-05,7.15e-06,0.0,0 STARLINK-3198,1 49763U 21115AR  24008.46047182  .00000715  00000-0  62990-4 0  9998,2 49763  53.2179  91.0873 0001423 100.2662 259.8491 15.08838907116233,6917.884,95.438,540.733,538.764,0.0
49763.0,STARLINK-3198,PAYLOAD,2024-01-09 04:32:19,15.08839174,0.0001469,53.2183,87.8172,102.3226,257.7931,5.6621e-05,6.13e-06,0.0,0 STARLINK-3198,1 49763U 21115AR  24009.18911201  .00000613  00000-0  56621-4 0  9991,2 49763  53.2183  87.8172 0001469 102.3226 257.7931 15.08839174117450,6917.883,95.438,540.764,538.732,0.0
49763.0,STARLINK-3198,PAYLOAD,2024-01-09 12:29:15,15.08839901,0.0001418,53.2173,86.3301,67.4448,292.6694,5.2511e-05,5.48e-06,0.0,0 STARLINK-3198,1 49763U 21115AR  24009.52031394  .00000548  00000-0  52511-4 0  9996,2 49763  53.2173  86.3301 0001418  67.4448 292.6694 15.08839901116392,6917.881,95.438,540.727,538.765,0.0
49763.0,STARLINK-3198,PAYLOAD,2024-01-10 10:44:38,15.08841441,0.0001519,53.2168,82.1669,65.9175,294.1976,5.3677e-05,5.66e-06,0.0,0 STARLINK-3198,1 49763U 21115AR  24010.44767288  .00000566  00000-0  53677-4 0  9991,2 49763  53.2168  82.1669 0001519  65.9175 294.1976 15.08841441117640,6917.876,95.437,540.792,538.69,0.0
49763.0,STARLINK-3198,PAYLOAD,2024-01-11 10:35:25,15.08841954,0.0001624,53.2175,77.7075,70.3543,289.7625,8.1799e-05,1.014e-05,0.0,0 STARLINK-3198,1 49763U 21115AR  24011.44127028  .00001014  00000-0  81799-4 0  9999,2 49763  53.2175  77.7075 0001624  70.3543 289.7625 15.08841954116688,6917.874,95.437,540.863,538.616,0.0
49763.0,STARLINK-3198,PAYLOAD,2024-01-12 10:26:13,15.08834266,0.0001875,53.218,73.2498,56.2184,303.8987,-3.2197e-05,-8e-06,0.0,0 STARLINK-3198,1 49763U 21115AR  24012.43488146 -.00000800  00000-0 -32197-4 0  9992,2 49763  53.2180  73.2498 0001875  56.2184 303.8987 15.08834266117943,6917.898,95.438,541.06,538.466,0.0
49763.0,STARLINK-3198,PAYLOAD,2024-01-13 10:16:59,15.08851021,0.0001668,53.2173,68.79,75.423,284.6947,0.00013272,1.825e-05,0.0,0 STARLINK-3198,1 49763U 21115AR  24013.42846670  .00001825  00000-0  13272-3 0  9990,2 49763  53.2173  68.7900 0001668  75.4230 284.6947 15.08851021118094,6917.847,95.437,540.866,538.558,0.0
49763.0,STARLINK-3198,PAYLOAD,2024-01-14 03:46:14,15.08838106,0.0001728,53.2187,65.5189,110.0968,250.021,2.8751e-05,1.7e-06,0.0,0 STARLINK-3198,1 49763U 21115AR  24014.15711661  .00000170  00000-0  28751-4 0  9993,2 49763  53.2187  65.5189 0001728 110.0968 250.0210 15.08838106118206,6917.886,95.438,540.947,538.556,0.0
49763.0,STARLINK-3198,PAYLOAD,2024-01-14 10:07:47,15.08840555,0.0001644,53.2186,64.3289,93.1859,266.9321,6.7122e-05,7.8e-06,0.0,0 STARLINK-3198,1 49763U 21115AR  24014.42207532  .00000780  00000-0  67122-4 0  9992,2 49763  53.2186  64.3289 0001644  93.1859 266.9321 15.08840555117131,6917.879,95.438,540.881,538.606,0.0
49763.0,STARLINK-3198,PAYLOAD,2024-01-15 09:58:34,15.08846852,0.0001694,53.2176,59.8669,94.3882,265.7304,1.4038e-05,-6.5e-07,0.0,0 STARLINK-3198,1 49763U 21115AR  24015.41567342 -.00000065  00000-0  14038-4 0  9995,2 49763  53.2176  59.8669 0001694  94.3882 265.7304 15.08846852118398,6917.859,95.437,540.896,538.553,0.0
49763.0,STARLINK-3198,PAYLOAD,2024-01-16 03:27:49,15.0882499,0.0001639,53.2177,56.592,106.8441,253.2731,0.00013359,1.838e-05,0.0,0 STARLINK-3198,1 49763U 21115AR  24016.14432269  .00001838  00000-0  13359-3 0  9997,2 49763  53.2177  56.5920 0001639 106.8441 253.2731 15.08824990118500,6917.926,95.439,540.925,538.657,0.0
49763.0,STARLINK-3198,PAYLOAD,2024-01-16 09:49:22,15.08827369,0.0001718,53.217,55.4047,57.7973,302.3186,-3.5706e-05,-8.56e-06,0.0,0 STARLINK-3198,1 49763U 21115AR  24016.40929161 -.00000856  00000-0 -35706-4 0  9990,2 49763  53.2170  55.4047 0001718  57.7973 302.3186 15.08827369118540,6917.919,95.438,540.972,538.595,0.0
49763.0,STARLINK-3198,PAYLOAD,2024-01-17 09:40:08,15.08844959,0.0001543,53.2171,50.9421,72.6706,287.4455,0.00011291,1.51e-05,0.0,0 STARLINK-3198,1 49763U 21115AR  24017.40287828  .00001510  00000-0  11291-3 0  9996,2 49763  53.2171  50.9421 0001543  72.6706 287.4455 15.08844959118695,6917.865,95.437,540.798,538.663,0.0
49763.0,STARLINK-3198,PAYLOAD,2024-01-18 01:34:00,15.08837962,0.0002108,53.219,47.9746,47.9948,312.1224,0.00013814,1.911e-05,0.0,0 STARLINK-3198,1 49763U 21115AR  24018.06528515  .00001911  00000-0  13814-3 0  9998,2 49763  53.2190  47.9746 0002108  47.9948 312.1224 15.08837962118790,6917.887,95.438,541.21,538.293,0.0
49763.0,STARLINK-3198,PAYLOAD,2024-01-18 09:30:56,15.08834821,0.0001718,53.2197,46.4837,62.2907,297.8259,0.0001894,2.727e-05,0.0,0 STARLINK-3198,1 49763U 21115AR  24018.39648635  .00002727  00000-0  18940-3 0  9991,2 49763  53.2197  46.4837 0001718  62.2907 297.8259 15.08834821117734,6917.896,95.438,540.95,538.573,0.0
49763.0,STARLINK-3198,PAYLOAD,2024-01-19 07:46:20,15.08843782,0.0002078,53.2191,42.3209,72.8964,287.2256,-2.562e-05,-6.96e-06,0.0,0 STARLINK-3198,1 49763U 21115AR  24019.32384863 -.00000696  00000-0 -25620-4 0  9994,2 49763  53.2191  42.3209 0002078  72.8964 287.2256 15.08843782118980,6917.869,95.437,541.171,538.296,0.0
49763.0,STARLINK-3198,PAYLOAD,2024-01-20 07:37:07,15.08842279,0.0001939,53.2192,37.8574,104.8583,255.2624,4.9921e-05,5.06e-06,0.0,0 STARLINK-3198,1 49763U 21115AR  24020.31744472  .00000506  00000-0  49921-4 0  9999,2 49763  53.2192  37.8574 0001939 104.8583 255.2624 15.08842279118022,6917.873,95.437,541.08,538.397,0.0
49763.0,STARLINK-3198,PAYLOAD,2024-01-21 04:17:08,15.08837776,0.0001565,53.2206,33.9958,88.3131,271.804,4.1848e-05,3.78e-06,0.0,0 STARLINK-3198,1 49763U 21115AR  24021.17856941  .00000378  00000-0  41848-4 0  9996,2 49763  53.2206  33.9958 0001565  88.3131 271.8040 15.08837776119260,6917.887,95.438,540.835,538.67,0.0
49763.0,STARLINK-3198,PAYLOAD,2024-01-21 05:52:30,15.0888471,0.000183,53.2197,33.6967,110.9311,249.1877,-0.00059878,-9.817e-05,0.0,0 STARLINK-3198,1 49763U 21115AR  24021.24479763 -.00009817  00000-0 -59878-3 0  9997,2 49763  53.2197  33.6967 0001830 110.9311 249.1877 15.08884710118167,6917.744,95.435,540.875,538.343,0.0
49763.0,STARLINK-3198,PAYLOAD,2024-01-21 10:38:40,15.08845556,0.0001945,53.2195,32.7983,111.0196,249.1004,-9.2432e-06,-4.35e-06,0.0,0 STARLINK-3198,1 49763U 21115AR  24021.44352463 -.00000435  00000-0 -92432-5 0  9998,2 49763  53.2195  32.7983 0001945 111.0196 249.1004 15.08845556118193,6917.863,95.437,541.074,538.383,0.0
49763.0,STARLINK-3198,PAYLOAD,2024-01-22 05:43:18,15.08840998,0.0001821,53.2188,29.2293,107.0353,253.0839,3.059e-05,1.99e-06,0.0,0 STARLINK-3198,1 49763U 21115AR  24022.23840787  .00000199  00000-0  30590-4 0  9998,2 49763  53.2188  29.2293 0001821 107.0353 253.0839 15.08840998118312,6917.877,95.437,541.002,538.483,0.0
49763.0,STARLINK-3198,PAYLOAD,2024-01-22 07:18:41,15.08841451,0.0001817,53.2188,28.932,107.1685,252.9506,3.3986e-05,2.53e-06,0.0,0 STARLINK-3198,1 49763U 21115AR  24022.30464749  .00000253  00000-0  33986-4 0  9999,2 49763  53.2188  28.9320 0001817 107.1685 252.9506 15.08841451119431,6917.876,95.437,540.998,538.484,0.0
49763.0,STARLINK-3198,PAYLOAD,2024-01-23 03:58:42,15.08834966,0.0001911,53.2193,25.0663,109.6175,250.5023,3.1006e-05,2.05e-06,0.0,0 STARLINK-3198,1 49763U 21115AR  24023.16577278  .00000205  00000-0  31006-4 0  9994,2 49763  53.2193  25.0663 0001911 109.6175 250.5023 15.08834966119566,6917.896,95.438,541.083,538.439,0.0
49763.0,STARLINK-3198,PAYLOAD,2024-01-23 05:34:05,15.08835431,0.0001922,53.2195,24.7688,110.5876,249.5322,3.5281e-05,2.73e-06,0.0,0 STARLINK-3198,1 49763U 21115AR  24023.23201299  .00000273  00000-0  35281-4 0  9993,2 49763  53.2195  24.7688 0001922 110.5876 249.5322 15.08835431118468,6917.894,95.438,541.089,538.43,0.0
49763.0,STARLINK-3198,PAYLOAD,2024-01-24 07:00:15,15.08843732,0.000173,53.2196,20.016,100.368,259.7507,8.767e-05,1.108e-05,0.0,0 STARLINK-3198,1 49763U 21115AR  24024.29184952  .00001108  00000-0  87670-4 0  9993,2 49763  53.2196  20.0160 0001730 100.3680 259.7507 15.08843732119732,6917.869,95.437,540.931,538.537,0.0
49763.0,STARLINK-3198,PAYLOAD,2024-01-25 03:40:17,15.0883883,0.0001616,53.2192,16.1514,75.1188,284.9983,5.6958e-05,6.19e-06,0.0,0 STARLINK-3198,1 49763U 21115AR  24025.15297526  .00000619  00000-0  56958-4 0  9992,2 49763  53.2192  16.1514 0001616  75.1188 284.9983 15.08838830119867,6917.884,95.438,540.867,538.631,0.0
49763.0,STARLINK-3198,PAYLOAD,2024-01-25 06:51:03,15.08809326,0.0002226,53.2207,15.5549,62.7714,297.3504,0.00054889,8.451e-05,0.0,0 STARLINK-3198,1 49763U 21115AR  24025.28546047  .00008451  00000-0  54889-3 0  9993,2 49763  53.2207  15.5549 0002226  62.7714 297.3504 15.08809326118774,6917.974,95.439,541.379,538.299,0.0
49763.0,STARLINK-3198,PAYLOAD,2024-01-26 03:31:04,15.08842151,0.0001995,53.2202,11.6885,70.2561,289.8647,6.7192e-06,-1.81e-06,0.0,0 STARLINK-3198,1 49763U 21115AR  24026.14657578 -.00000181  00000-0  67192-5 0  9997,2 49763  53.2202  11.6885 0001995  70.2561 289.8647 15.08842151120012,6917.874,95.437,541.119,538.359,0.0
